[{"OBJECT_NAME":"STARLINK-6114","OBJECT_ID":"2023-046Z","EPOCH":"2026-03-09T06:38:39.291360","MEAN_MOTION":15.02532897,"ECCENTRICITY":0.00015396,"INCLINATION":43.0033,"RA_OF_ASC_NODE":160.87,"ARG_OF_PERICENTER":269.1898,"MEAN_ANOMALY":90.8768,"EPHEMERIS_TYPE":0,"CLASSIFICATION_TYPE":"U","NORAD_CAT_ID":56116,"ELEMENT_SET_NO":999,"REV_AT_EPOCH":16200,"BSTAR":4.675226e-5,"MEAN_MOTION_DOT":4.28e-6,"MEAN_MOTION_DDOT":0},{"OBJECT_NAME":"CZ-6A DEB","OBJECT_ID":"2024-140NC","EPOCH":"2026-03-09T01:19:44.598720","MEAN_MOTION":14.85954551,"ECCENTRICITY":0.01874643,"INCLINATION":89.0262,"RA_OF_ASC_NODE":281.6645,"ARG_OF_PERICENTER":160.2054,"MEAN_ANOMALY":200.6578,"EPHEMERIS_TYPE":0,"CLASSIFICATION_TYPE":"U","NORAD_CAT_ID":61086,"ELEMENT_SET_NO":999,"REV_AT_EPOCH":8276,"BSTAR":0.00091551765,"MEAN_MOTION_DOT":0.00011041,"MEAN_MOTION_DDOT":0}]
